{"type": "FeatureCollection", "features": [ {"type": "Feature", "properties": {"norad_id": 38552, "name": "METEOSAT-10 (MSG-3)", "group": "weather", "lat": 0.601736194612009, "lon": 69.51482011643166, "alt_km": 35785.05882273764, "timestamp": "2025-12-19T22:41:52.021276+00:00", "meta": {"OBJECT_NAME": "METEOSAT-10 (MSG-3)", "OBJECT_ID": "2012-035B", "EPOCH": "2025-12-19T08:07:49.924128", "MEAN_MOTION": 1.00276524, "ECCENTRICITY": 6.93e-05, "INCLINATION": 4.2433, "RA_OF_ASC_NODE": 61.706, "ARG_OF_PERICENTER": 270.066, "MEAN_ANOMALY": 238.6463, "EPHEMERIS_TYPE": 0, "CLASSIFICATION_TYPE": "U", "NORAD_CAT_ID": 38552, "ELEMENT_SET_NO": 999, "REV_AT_EPOCH": 4905, "BSTAR": 0, "MEAN_MOTION_DOT": 1.7e-07, "MEAN_MOTION_DDOT": 0}, "tle": {"line1": "1 38552U 12035B   25353.33877227  .00000017  00000+0  00000+0 0  9997", "line2": "2 38552   4.2433  61.7060 0000693 270.0660 238.6463  1.00276524 49057"}}, "geometry": {"type": "Point", "coordinates": [69.51482011643166, 0.601736194612009]}}, {"type": "Feature", "properties": {"norad_id": 38771, "name": "METOP-B", "group": "weather", "lat": -40.19942288862053, "lon": -143.63407660648124, "alt_km": 827.1337909634267, "timestamp": "2025-12-19T22:41:52.021287+00:00", "meta": {"OBJECT_NAME": "METOP-B", "OBJECT_ID": "2012-049A", "EPOCH": "2025-12-19T16:35:41.381952", "MEAN_MOTION": 14.21410903, "ECCENTRICITY": 0.0003161, "INCLINATION": 98.6789, "RA_OF_ASC_NODE": 43.5321, "ARG_OF_PERICENTER": 129.5342, "MEAN_ANOMALY": 230.6115, "EPHEMERIS_TYPE": 0, "CLASSIFICATION_TYPE": "U", "NORAD_CAT_ID": 38771, "ELEMENT_SET_NO": 999, "REV_AT_EPOCH": 68776, "BSTAR": 6.9504e-05, "MEAN_MOTION_DOT": 1.08e-06, "MEAN_MOTION_DDOT": 0}, "tle": {"line1": "1 38771U 12049A   25353.69145118  .00000108  00000+0  69504-4 0  9991", "line2": "2 38771  98.6789  43.5321 0003161 129.5342 230.6115 14.21410903687767"}}, "geometry": {"type": "Point", "coordinates": [-143.63407660648124, -40.19942288862053]}}, {"type": "Feature", "properties": {"norad_id": 39216, "name": "INSAT-3D", "group": "weather", "lat": 1.3279704861542707, "lon": -161.31332361303217, "alt_km": 35784.24971500879, "timestamp": "2025-12-19T22:41:52.021299+00:00", "meta": {"OBJECT_NAME": "INSAT-3D", "OBJECT_ID": "2013-038B", "EPOCH": "2025-12-17T17:21:59.330304", "MEAN_MOTION": 1.00267779, "ECCENTRICITY": 0.00012009, "INCLINATION": 1.4572, "RA_OF_ASC_NODE": 84.9421, "ARG_OF_PERICENTER": 166.0293, "MEAN_ANOMALY": 225.6028, "EPHEMERIS_TYPE": 0, "CLASSIFICATION_TYPE": "U", "NORAD_CAT_ID": 39216, "ELEMENT_SET_NO": 999, "REV_AT_EPOCH": 4526, "BSTAR": 0, "MEAN_MOTION_DOT": -3.16e-06, "MEAN_MOTION_DDOT": 0}, "tle": {"line1": "1 39216U 13038B   25351.72360336 -.00000316  00000+0  00000+0 0  9991", "line2": "2 39216   1.4572  84.9421 0001200 166.0293 225.6028  1.00267779 45261"}}, "geometry": {"type": "Point", "coordinates": [-161.31332361303217, 1.3279704861542707]}}, {"type": "Feature", "properties": {"norad_id": 39260, "name": "FENGYUN 3C", "group": "weather", "lat": -39.93798235995915, "lon": -21.55357598268273, "alt_km": 855.032702985367, "timestamp": "2025-12-19T22:41:52.021311+00:00", "meta": {"OBJECT_NAME": "FENGYUN 3C", "OBJECT_ID": "2013-052A", "EPOCH": "2025-12-19T17:48:01.416384", "MEAN_MOTION": 14.1569839, "ECCENTRICITY": 0.0014677, "INCLINATION": 98.477, "RA_OF_ASC_NODE": 331.0794, "ARG_OF_PERICENTER": 175.6238, "MEAN_ANOMALY": 184.5067, "EPHEMERIS_TYPE": 0, "CLASSIFICATION_TYPE": "U", "NORAD_CAT_ID": 39260, "ELEMENT_SET_NO": 999, "REV_AT_EPOCH": 63317, "BSTAR": 5.1105e-05, "MEAN_MOTION_DOT": 5.9e-07, "MEAN_MOTION_DDOT": 0}, "tle": {"line1": "1 39260U 13052A   25353.74168306  .00000059  00000+0  51105-4 0  9993", "line2": "2 39260  98.4770 331.0794 0014677 175.6238 184.5067 14.15698390633178"}}, "geometry": {"type": "Point", "coordinates": [-21.55357598268273, -39.93798235995915]}}, {"type": "Feature", "properties": {"norad_id": 40069, "name": "METEOR-M 2", "group": "weather", "lat": 81.32446222918303, "lon": -106.95694278197752, "alt_km": 813.7776082002747, "timestamp": "2025-12-19T22:41:52.021322+00:00", "meta": {"OBJECT_NAME": "METEOR-M 2", "OBJECT_ID": "2014-037A", "EPOCH": "2025-12-19T18:54:18.103392", "MEAN_MOTION": 14.21388941, "ECCENTRICITY": 0.000535, "INCLINATION": 98.4899, "RA_OF_ASC_NODE": 331.102, "ARG_OF_PERICENTER": 187.3216, "MEAN_ANOMALY": 172.7884, "EPHEMERIS_TYPE": 0, "CLASSIFICATION_TYPE": "U", "NORAD_CAT_ID": 40069, "ELEMENT_SET_NO": 999, "REV_AT_EPOCH": 59383, "BSTAR": 8.6356e-05, "MEAN_MOTION_DOT": 1.47e-06, "MEAN_MOTION_DDOT": 0}, "tle": {"line1": "1 40069U 14037A   25353.78770953  .00000147  00000+0  86356-4 0  9991", "line2": "2 40069  98.4899 331.1020 0005350 187.3216 172.7884 14.21388941593835"}}, "geometry": {"type": "Point", "coordinates": [-106.95694278197752, 81.32446222918303]}}, {"type": "Feature", "properties": {"norad_id": 40267, "name": "HIMAWARI-8", "group": "weather", "lat": -0.002319333784861322, "lon": -150.09725372496246, "alt_km": 35785.862421672624, "timestamp": "2025-12-19T22:41:52.021333+00:00", "meta": {"OBJECT_NAME": "HIMAWARI-8", "OBJECT_ID": "2014-060A", "EPOCH": "2025-12-19T17:21:22.929984", "MEAN_MOTION": 1.00271382, "ECCENTRICITY": 8.6e-05, "INCLINATION": 0.0296, "RA_OF_ASC_NODE": 122.5476, "ARG_OF_PERICENTER": 171.938, "MEAN_ANOMALY": 195.097, "EPHEMERIS_TYPE": 0, "CLASSIFICATION_TYPE": "U", "NORAD_CAT_ID": 40267, "ELEMENT_SET_NO": 999, "REV_AT_EPOCH": 4096, "BSTAR": 0, "MEAN_MOTION_DOT": -2.51e-06, "MEAN_MOTION_DDOT": 0}, "tle": {"line1": "1 40267U 14060A   25353.72318206 -.00000251  00000+0  00000+0 0  9994", "line2": "2 40267   0.0296 122.5476 0000860 171.9380 195.0970  1.00271382 40962"}}, "geometry": {"type": "Point", "coordinates": [-150.09725372496246, -0.002319333784861322]}}, {"type": "Feature", "properties": {"norad_id": 40367, "name": "FENGYUN 2G", "group": "weather", "lat": 5.183411585314572, "lon": 168.53679689331443, "alt_km": 35792.057316601306, "timestamp": "2025-12-19T22:41:52.021345+00:00", "meta": {"OBJECT_NAME": "FENGYUN 2G", "OBJECT_ID": "2014-090A", "EPOCH": "2025-12-19T18:56:11.651136", "MEAN_MOTION": 1.00261653, "ECCENTRICITY": 0.0002678, "INCLINATION": 5.1853, "RA_OF_ASC_NODE": 75.0175, "ARG_OF_PERICENTER": 203.1106, "MEAN_ANOMALY": 193.8582, "EPHEMERIS_TYPE": 0, "CLASSIFICATION_TYPE": "U", "NORAD_CAT_ID": 40367, "ELEMENT_SET_NO": 999, "REV_AT_EPOCH": 4020, "BSTAR": 0, "MEAN_MOTION_DOT": -2.79e-06, "MEAN_MOTION_DDOT": 0}, "tle": {"line1": "1 40367U 14090A   25353.78902374 -.00000279  00000+0  00000+0 0  9999", "line2": "2 40367   5.1853  75.0175 0002678 203.1106 193.8582  1.00261653 40201"}}, "geometry": {"type": "Point", "coordinates": [168.53679689331443, 5.183411585314572]}}, {"type": "Feature", "properties": {"norad_id": 40732, "name": "METEOSAT-11 (MSG-4)", "group": "weather", "lat": 0.3363152153577972, "lon": 78.4355766016583, "alt_km": 35788.89999831905, "timestamp": "2025-12-19T22:41:52.021357+00:00", "meta": {"OBJECT_NAME": "METEOSAT-11 (MSG-4)", "OBJECT_ID": "2015-034A", "EPOCH": "2025-12-19T18:26:37.153248", "MEAN_MOTION": 1.0026969, "ECCENTRICITY": 8.45e-05, "INCLINATION": 2.7536, "RA_OF_ASC_NODE": 71.9835, "ARG_OF_PERICENTER": 136.1674, "MEAN_ANOMALY": 166.3221, "EPHEMERIS_TYPE": 0, "CLASSIFICATION_TYPE": "U", "NORAD_CAT_ID": 40732, "ELEMENT_SET_NO": 999, "REV_AT_EPOCH": 541, "BSTAR": 0, "MEAN_MOTION_DOT": 8.3e-07, "MEAN_MOTION_DDOT": 0}, "tle": {"line1": "1 40732U 15034A   25353.76848557  .00000083  00000+0  00000+0 0  9996", "line2": "2 40732   2.7536  71.9835 0000845 136.1674 166.3221  1.00269690  5413"}}, "geometry": {"type": "Point", "coordinates": [78.4355766016583, 0.3363152153577972]}}, {"type": "Feature", "properties": {"norad_id": 41105, "name": "ELEKTRO-L 2", "group": "weather", "lat": -1.9002810437136841, "lon": 54.899899455742, "alt_km": 35796.335484826486, "timestamp": "2025-12-19T22:41:52.021369+00:00", "meta": {"OBJECT_NAME": "ELEKTRO-L 2", "OBJECT_ID": "2015-074A", "EPOCH": "2025-12-19T09:46:17.993280", "MEAN_MOTION": 1.00272637, "ECCENTRICITY": 0.0003545, "INCLINATION": 6.2415, "RA_OF_ASC_NODE": 72.7491, "ARG_OF_PERICENTER": 209.2952, "MEAN_ANOMALY": 298.3067, "EPHEMERIS_TYPE": 0, "CLASSIFICATION_TYPE": "U", "NORAD_CAT_ID": 41105, "ELEMENT_SET_NO": 999, "REV_AT_EPOCH": 3670, "BSTAR": 0, "MEAN_MOTION_DOT": -9.8e-07, "MEAN_MOTION_DDOT": 0}, "tle": {"line1": "1 41105U 15074A   25353.40715270 -.00000098  00000+0  00000+0 0  9998", "line2": "2 41105   6.2415  72.7491 0003545 209.2952 298.3067  1.00272637 36706"}}, "geometry": {"type": "Point", "coordinates": [54.899899455742, -1.9002810437136841]}}, {"type": "Feature", "properties": {"norad_id": 41752, "name": "INSAT-3DR", "group": "weather", "lat": 0.10233938167898693, "lon": 143.1046650267616, "alt_km": 35823.28043569873, "timestamp": "2025-12-19T22:41:52.021381+00:00", "meta": {"OBJECT_NAME": "INSAT-3DR", "OBJECT_ID": "2016-054A", "EPOCH": "2025-12-19T19:07:12.495360", "MEAN_MOTION": 1.00271614, "ECCENTRICITY": 0.0014134, "INCLINATION": 0.1091, "RA_OF_ASC_NODE": 86.4186, "ARG_OF_PERICENTER": 185.1345, "MEAN_ANOMALY": 177.8779, "EPHEMERIS_TYPE": 0, "CLASSIFICATION_TYPE": "U", "NORAD_CAT_ID": 41752, "ELEMENT_SET_NO": 999, "REV_AT_EPOCH": 3402, "BSTAR": 0, "MEAN_MOTION_DOT": -5.3e-07, "MEAN_MOTION_DDOT": 0}, "tle": {"line1": "1 41752U 16054A   25353.79667240 -.00000053  00000+0  00000+0 0  9991", "line2": "2 41752   0.1091  86.4186 0014134 185.1345 177.8779  1.00271614 34022"}}, "geometry": {"type": "Point", "coordinates": [143.1046650267616, 0.10233938167898693]}}]}